$$SOE
2460714.500000000, A.D. 2025-Feb-08 00:00:00.0000, 5.150022619416579E+08, 3.664650973529071E+07, -3.884721678961165E+07,
2460721.500000000, A.D. 2025-Feb-15 00:00:00.0000, 5.150663905155810E+08, 4.538725699773511E+07, -3.567853447085334E+07,
2460728.500000000, A.D. 2025-Feb-22 00:00:00.0000, 5.149509065923798E+08, 5.411214692491974E+07, -3.249740892603393E+07,
2460735.500000000, A.D. 2025-Mar-01 00:00:00.0000, 5.146563839975817E+08, 6.281819363758921E+07, -2.930498336112925E+07,
2460742.500000000, A.D. 2025-Mar-08 00:00:00.0000, 5.141834421051131E+08, 7.150243358660202E+07, -2.610239748960555E+07,
2460749.500000000, A.D. 2025-Mar-15 00:00:00.0000, 5.135327451453722E+08, 8.016192748246831E+07, -2.289078727445558E+07,
2460756.500000000, A.D. 2025-Mar-22 00:00:00.0000, 5.127049993284132E+08, 8.879376080108340E+07, -1.967128458832380E+07,
2460763.500000000, A.D. 2025-Mar-29 00:00:00.0000, 5.117009513602079E+08, 9.739504202394344E+07, -1.644501718860652E+07,
2460770.500000000, A.D. 2025-Apr-05 00:00:00.0000, 5.105213886759755E+08, 1.059629017518859E+08, -1.321310878078568E+07,
2460777.500000000, A.D. 2025-Apr-12 00:00:00.0000, 5.091671394640234E+08, 1.144944927978389E+08, -9.976678984763399E+06,
2460784.500000000, A.D. 2025-Apr-19 00:00:00.0000, 5.076390722928914E+08, 1.229869903786357E+08, -6.736843258999683E+06,
2460791.500000000, A.D. 2025-Apr-26 00:00:00.0000, 5.059380956134115E+08, 1.314375922041367E+08, -3.494712823900238E+06,
2460798.500000000, A.D. 2025-May-03 00:00:00.0000, 5.040651572492203E+08, 1.398435184841025E+08, -2.513945932128727E+05,
2460805.500000000, A.D. 2025-May-10 00:00:00.0000, 5.020212439041492E+08, 1.482020118627407E+08, 2.992008884797677E+06,
2460812.500000000, A.D. 2025-May-17 00:00:00.0000, 4.998073807231476E+08, 1.565103372411286E+08, 6.234399469867520E+06,
2460819.500000000, A.D. 2025-May-24 00:00:00.0000, 4.974246310806928E+08, 1.647657814341079E+08, 9.474683435772009E+06,
2460826.500000000, A.D. 2025-May-31 00:00:00.0000, 4.948740970142319E+08, 1.729656529732684E+08, 1.271177142719393E+07,
2460833.500000000, A.D. 2025-Jun-07 00:00:00.0000, 4.921569199004672E+08, 1.811072832614845E+08, 1.594457850285463E+07,
2460840.500000000, A.D. 2025-Jun-14 00:00:00.0000, 4.892742790092041E+08, 1.891880284141085E+08, 1.917202442767002E+07,
2460847.500000000, A.D. 2025-Jun-21 00:00:00.0000, 4.862273891529518E+08, 1.972052685171511E+08, 2.239303383548181E+07,
2460854.500000000, A.D. 2025-Jun-28 00:00:00.0000, 4.830175005608677E+08, 2.051564060672241E+08, 2.560653611995402E+07,
2460861.500000000, A.D. 2025-Jul-05 00:00:00.0000, 4.796458994593320E+08, 2.130388657501946E+08, 2.881146536927836E+07,
2460868.500000000, A.D. 2025-Jul-12 00:00:00.0000, 4.761139081677812E+08, 2.208500947541620E+08, 3.200676038852228E+07,
2460875.500000000, A.D. 2025-Jul-19 00:00:00.0000, 4.724228848993201E+08, 2.285875630423265E+08, 3.519136474564333E+07,
2460882.500000000, A.D. 2025-Jul-26 00:00:00.0000, 4.685742234756765E+08, 2.362487635294396E+08, 3.836422681762691E+07,
2460889.500000000, A.D. 2025-Aug-02 00:00:00.0000, 4.645693530210063E+08, 2.438312121836848E+08, 4.152429983276182E+07,
2460896.500000000, A.D. 2025-Aug-09 00:00:00.0000, 4.604097376567046E+08, 2.513324480399230E+08, 4.467054190590967E+07,
2460903.500000000, A.D. 2025-Aug-16 00:00:00.0000, 4.560968762730305E+08, 2.587500330623226E+08, 4.780191605480915E+07,
2460910.500000000, A.D. 2025-Aug-23 00:00:00.0000, 4.516323026697560E+08, 2.660815518745548E+08, 5.091739017236745E+07,
2460917.500000000, A.D. 2025-Aug-30 00:00:00.0000, 4.470175863948810E+08, 2.733246120728570E+08, 5.401593698363933E+07,
2460924.500000000, A.D. 2025-Sep-06 00:00:00.0000, 4.422543328627265E+08, 2.804768461230738E+08, 5.709653419979621E+07,
2460931.500000000, A.D. 2025-Sep-13 00:00:00.0000, 4.373441810806557E+08, 2.875359123606778E+08, 6.015816482025954E+07,
2460938.500000000, A.D. 2025-Sep-20 00:00:00.0000, 4.322888022594334E+08, 2.944994934506233E+08, 6.319981714937125E+07,
2460945.500000000, A.D. 2025-Sep-27 00:00:00.0000, 4.270899003660403E+08, 3.013652954181268E+08, 6.622048468520842E+07,
2460952.500000000, A.D. 2025-Oct-04 00:00:00.0000, 4.217492126011187E+08, 3.081310477895415E+08, 6.921916610983743E+07,
2460959.500000000, A.D. 2025-Oct-11 00:00:00.0000, 4.162685094266313E+08, 3.147945039008823E+08, 7.219486533853555E+07,
2460966.500000000, A.D. 2025-Oct-18 00:00:00.0000, 4.106495944268545E+08, 3.213534411001929E+08, 7.514659157978903E+07,
2460973.500000000, A.D. 2025-Oct-25 00:00:00.0000, 4.048943041416246E+08, 3.278056608553529E+08, 7.807335939429069E+07,
2460980.500000000, A.D. 2025-Nov-01 00:00:00.0000, 3.990045079105081E+08, 3.341489887834828E+08, 8.097418875058861E+07,
2460987.500000000, A.D. 2025-Nov-08 00:00:00.0000, 3.929821077615871E+08, 3.403812745713837E+08, 8.384810507157530E+07,
2460994.500000000, A.D. 2025-Nov-15 00:00:00.0000, 3.868290384919301E+08, 3.465003917295826E+08, 8.669413925340359E+07,
2461001.500000000, A.D. 2025-Nov-22 00:00:00.0000, 3.805472683419852E+08, 3.525042374013369E+08, 8.951132763787200E+07,
2461008.500000000, A.D. 2025-Nov-29 00:00:00.0000, 3.741388001102319E+08, 3.583907333622713E+08, 9.229871204493308E+07,
2461015.500000000, A.D. 2025-Dec-06 00:00:00.0000, 3.676056704290951E+08, 3.641578280751441E+08, 9.505534006277736E+07,
2461022.500000000, A.D. 2025-Dec-13 00:00:00.0000, 3.609499476349053E+08, 3.698034964316697E+08, 9.778026528069116E+07,
2461029.500000000, A.D. 2025-Dec-20 00:00:00.0000, 3.541737317262368E+08, 3.753257382064178E+08, 1.004725472286073E+08,
2461036.500000000, A.D. 2025-Dec-27 00:00:00.0000, 3.472791553368835E+08, 3.807225778142939E+08, 1.031312513336826E+08,
2461043.500000000, A.D. 2026-Jan-03 00:00:00.0000, 3.402683842633692E+08, 3.859920647566553E+08, 1.057554489775180E+08,
2461050.500000000, A.D. 2026-Jan-10 00:00:00.0000, 3.331436176561366E+08, 3.911322740783461E+08, 1.083442175887690E+08,
2461057.500000000, A.D. 2026-Jan-17 00:00:00.0000, 3.259070881064849E+08, 3.961413067453939E+08, 1.108966407426678E+08,
2461064.500000000, A.D. 2026-Jan-24 00:00:00.0000, 3.185610617066448E+08, 4.010172899673768E+08, 1.134118082624936E+08,
2461071.500000000, A.D. 2026-Jan-31 00:00:00.0000, 3.111078381058097E+08, 4.057583774584579E+08, 1.158888163205662E+08,
2461078.500000000, A.D. 2026-Feb-07 00:00:00.0000, 3.035497506229597E+08, 4.103627495812408E+08, 1.183267675288069E+08,
2461085.500000000, A.D. 2026-Feb-14 00:00:00.0000, 2.958891666689343E+08, 4.148286133598136E+08, 1.207247709948756E+08,
2461092.500000000, A.D. 2026-Feb-21 00:00:00.0000, 2.881284888650886E+08, 4.191542029406261E+08, 1.230819423560523E+08,
2461099.500000000, A.D. 2026-Feb-28 00:00:00.0000, 2.802701557734354E+08, 4.233377816552662E+08, 1.253974039848484E+08,
2461106.500000000, A.D. 2026-Mar-07 00:00:00.0000, 2.723166401780884E+08, 4.273776437351952E+08, 1.276702853956989E+08,
2461113.500000000, A.D. 2026-Mar-14 00:00:00.0000, 2.642704476926466E+08, 4.312721133475573E+08, 1.298997234083628E+08,
2461120.500000000, A.D. 2026-Mar-21 00:00:00.0000, 2.561341174772113E+08, 4.350195438512548E+08, 1.320848621422383E+08,
2461127.500000000, A.D. 2026-Mar-28 00:00:00.0000, 2.479102230554222E+08, 4.386183183012979E+08, 1.342248531099326E+08,
2461134.500000000, A.D. 2026-Apr-04 00:00:00.0000, 2.396013726266042E+08, 4.420668502351956E+08, 1.363188553863740E+08,
2461141.500000000, A.D. 2026-Apr-11 00:00:00.0000, 2.312102091455662E+08, 4.453635843812299E+08, 1.383660357988468E+08,
2461148.500000000, A.D. 2026-Apr-18 00:00:00.0000, 2.227394103278457E+08, 4.485069972820896E+08, 1.403655691228235E+08,
2461155.500000000, A.D. 2026-Apr-25 00:00:00.0000, 2.141916886248305E+08, 4.514955978492721E+08, 1.423166382809371E+08,
2461162.500000000, A.D. 2026-May-02 00:00:00.0000, 2.055697911984746E+08, 4.543279278197926E+08, 1.442184345405670E+08,
2461169.500000000, A.D. 2026-May-09 00:00:00.0000, 1.968765000197465E+08, 4.570025620502946E+08, 1.460701576941345E+08,
2461176.500000000, A.D. 2026-May-16 00:00:00.0000, 1.881146324686841E+08, 4.595181087881716E+08, 1.478710161997309E+08,
2461183.500000000, A.D. 2026-May-23 00:00:00.0000, 1.792870424882104E+08, 4.618732109430564E+08, 1.496202273616944E+08,
2461190.500000000, A.D. 2026-May-30 00:00:00.0000, 1.703966202133683E+08, 4.640665486778135E+08, 1.513170177678530E+08,
2461197.500000000, A.D. 2026-Jun-06 00:00:00.0000, 1.614462897568243E+08, 4.660968400445338E+08, 1.529606237444346E+08,
2461204.500000000, A.D. 2026-Jun-13 00:00:00.0000, 1.524390088148850E+08, 4.679628398658321E+08, 1.545502915092309E+08,
2461211.500000000, A.D. 2026-Jun-20 00:00:00.0000, 1.433777695928437E+08, 4.696633397885756E+08, 1.560852773085146E+08,
2461218.500000000, A.D. 2026-Jun-27 00:00:00.0000, 1.342655993503337E+08, 4.711971691697739E+08, 1.575648476652846E+08,
2461225.500000000, A.D. 2026-Jul-04 00:00:00.0000, 1.251055605649756E+08, 4.725631960196536E+08, 1.589882796752078E+08,
2461232.500000000, A.D. 2026-Jul-11 00:00:00.0000, 1.159007509667364E+08, 4.737603278702806E+08, 1.603548613160789E+08,
2461239.500000000, A.D. 2026-Jul-18 00:00:00.0000, 1.066543035342963E+08, 4.747875125957969E+08, 1.616638917643484E+08,
2461246.500000000, A.D. 2026-Jul-25 00:00:00.0000, 9.736938647643484E+07, 4.756437391872733E+08, 1.629146817166715E+08,
2461253.500000000, A.D. 2026-Aug-01 00:00:00.0000, 8.804920324503163E+07, 4.763280384343024E+08, 1.641065537081304E+08,
2461260.500000000, A.D. 2026-Aug-08 00:00:00.0000, 7.869699279292957E+07, 4.768394834777311E+08, 1.652388424045630E+08,
2461267.500000000, A.D. 2026-Aug-15 00:00:00.0000, 6.931603049000074E+07, 4.771771906845042E+08, 1.663108948680328E+08,
2461274.500000000, A.D. 2026-Aug-22 00:00:00.0000, 5.990962893515652E+07, 4.773403220666997E+08, 1.673220709655051E+08,
2461281.500000000, A.D. 2026-Aug-29 00:00:00.0000, 5.048113637422643E+07, 4.773280878714362E+08, 1.682717440181569E+08,
2461288.500000000, A.D. 2026-Sep-05 00:00:00.0000, 4.103393485452816E+07, 4.771397464723985E+08, 1.691593012606735E+08,
$$EOE